OBJECT_NAME,OBJECT_ID,EPOCH,MEAN_MOTION,ECCENTRICITY,INCLINATION,RA_OF_ASC_NODE,ARG_OF_PERICENTER,MEAN_ANOMALY,EPHEMERIS_TYPE,CLASSIFICATION_TYPE,NORAD_CAT_ID,ELEMENT_SET_NO,REV_AT_EPOCH,BSTAR,MEAN_MOTION_DOT,MEAN_MOTION_DDOT
AZERSPACE 2 (IS-38),2018-074A,2026-06-09T11:50:27.370176,1.00271476,.00013216,0.0130,325.5302,113.5202,41.5436,0,U,43632,999,2837,0,.154E-5,0
HORIZONS-3E,2018-074B,2026-06-09T03:52:26.934240,1.00270197,.0000957,0.0093,158.1609,124.5481,201.9406,0,U,43633,999,2826,0,-.14E-6,0
AEHF-4 (USA 288),2018-079A,2026-06-09T11:18:16.603200,1.00275691,.00605414,1.4299,3.2662,356.7870,359.7752,0,U,43651,999,2821,0,-.259E-5,0
BEIDOU-3 G1,2018-085A,2026-06-09T15:08:43.413792,1.00271457,.0008446,2.8480,97.5932,347.6362,199.9363,0,U,43683,999,2798,0,-.91E-6,0
GSAT-29,2018-089A,2026-06-09T11:53:19.593888,1.00271808,.00035171,0.0480,112.1609,322.0943,56.9768,0,U,43698,999,2771,0,.102E-5,0
ES'HAIL 2,2018-090A,2026-06-09T04:54:15.071040,1.00273583,.0001916,0.0163,288.9745,188.7115,239.2727,0,U,43700,999,2759,0,.161E-5,0
GEO-KOMPSAT-2A,2018-100A,2026-06-09T12:14:07.975392,1.00270115,.0002247,0.0517,131.1417,313.3318,125.2042,0,U,43823,999,2755,0,-.327E-5,0
GSAT-11,2018-100B,2026-06-09T11:58:41.579040,1.00271337,.00078238,0.0475,255.9882,190.1548,65.4119,0,U,43824,999,2740,0,-.6E-6,0
GSAT-7A,2018-105A,2026-06-09T11:55:34.378752,1.00269468,.00021788,0.0142,275.2492,144.4362,79.8717,0,U,43864,999,2737,0,.44E-6,0
COSMOS 2533,2018-107A,2026-06-09T11:57:34.187040,1.00270322,.00002998,0.0434,101.3867,24.8871,20.9850,0,U,43867,999,2737,0,-.21E-6,0
TJS-3,2018-110A,2026-06-09T15:05:06.871200,1.00272661,.0002009,2.5243,80.5821,77.4522,114.4992,0,U,43874,999,2734,0,-.199E-5,0
ZHONGXING-2D,2019-001A,2026-06-09T05:23:58.813728,1.00268642,.00006559,0.0490,89.3904,283.2683,95.9372,0,U,43920,999,5400,0,-.32E-5,0
HELLAS-SAT 4 & SGS-1,2019-007A,2026-06-09T11:48:42.536736,1.00272091,.00050878,0.0659,133.0572,8.6055,332.4040,0,U,44034,999,2729,0,.17E-5,0
GSAT-31,2019-007B,2026-06-09T11:51:12.298176,1.00272792,.00018892,0.0845,261.5349,107.8441,114.1034,0,U,44035,999,2689,0,.142E-5,0
NUSANTARA SATU,2019-009A,2026-06-09T05:28:35.870880,1.00269842,.00042913,0.0401,145.4911,326.7553,13.5159,0,U,44048,999,2669,0,-.218E-5,0
ZHONGXING-6C,2019-012A,2026-06-08T17:25:26.779296,1.00268549,.00133551,0.1423,80.4292,330.3838,238.0639,0,U,44067,999,2665,0,-.319E-5,0
WGS 10 (USA 291),2019-014A,2026-06-09T16:23:26.512800,1.00258843,.00003623,0.0197,354.2229,202.3015,7.6951,0,U,44071,999,2654,0,0,0
TIANLIAN 2-01,2019-017A,2026-06-09T11:59:33.996192,1.00271173,.00007841,0.5190,83.1230,11.1882,60.4800,0,U,44076,999,2657,0,-.9E-6,0
ARABSAT-6A,2019-021A,2026-06-09T04:55:37.438752,1.00284123,.000128,0.0494,0.6850,101.2480,260.1178,0,U,44186,999,2607,0,.171E-5,0
BEIDOU-3 IGSO-1,2019-023A,2026-06-06T22:54:10.040832,1.00294886,.00254341,58.6799,37.7569,225.6649,92.8731,0,U,44204,999,710,0,-.215E-5,0
BEIDOU-2 G8,2019-027A,2026-06-09T15:44:07.181088,1.00273915,.00104464,1.6380,74.4939,284.0565,280.0374,0,U,44231,999,2600,0,-.23E-5,0
YAMAL 601,2019-031A,2026-06-09T13:34:14.935296,1.00271710,.00023531,0.0169,54.7316,24.3458,71.4271,0,U,44307,999,2585,0,.137E-5,0
AT&T T-16,2019-034A,2026-06-09T11:04:33.551616,1.00268708,.00006328,0.0237,67.0112,188.4482,67.6581,0,U,44333,999,2555,0,-.98E-6,0
EUTELSAT 7C,2019-034B,2026-06-09T08:14:16.000800,1.00270882,.00031082,0.0737,174.5022,249.3929,324.3949,0,U,44334,999,675,0,.65E-6,0
BEIDOU-3 IGSO-2,2019-035A,2026-06-09T00:25:00.952032,1.00269508,.00399597,55.2449,158.9337,216.4337,8.1508,0,U,44337,999,2558,0,-.43E-6,0
COSMOS 2539,2019-048A,2026-06-08T13:26:12.374016,1.00270251,.00003013,0.0380,102.6356,51.9261,315.9435,0,U,44457,999,2514,0,.97E-6,0
EDRS-C,2019-049A,2026-06-09T12:18:15.080256,1.00271009,.00010144,0.0393,136.1106,313.5066,135.3467,0,U,44475,999,2513,0,-.245E-5,0
INTELSAT 39 (IS-39),2019-049B,2026-06-09T00:09:47.202048,1.00266551,.00011559,0.0162,310.4453,11.0959,0.2561,0,U,44476,999,2504,0,.51E-6,0
AMOS-17,2019-050A,2026-06-09T11:42:29.281824,1.00270580,.00015944,0.0155,331.9947,131.1276,347.3556,0,U,44479,999,2511,0,.126E-5,0
AEHF-5 (USA 292),2019-051A,2026-06-09T12:04:03.565056,1.00267316,.00670339,1.4607,335.5601,0.8224,195.5197,0,U,44481,999,2518,0,-.241E-5,0
EUTELSAT 5 WEST B,2019-067A,2026-06-09T08:10:53.823936,1.00271968,.00031146,0.0630,348.2799,90.1301,297.0445,0,U,44624,999,2435,0,-.25E-6,0
TJS-4,2019-070A,2026-06-09T15:26:46.202784,1.00269848,.00047881,0.0182,307.7655,91.8358,173.6254,0,U,44637,999,2446,0,-.152E-5,0
