AZERSPACE 2 (IS-38)     
1 43632U 18074A   26160.49337234  .00000154  00000+0  00000+0 0  9996
2 43632   0.0130 325.5302 0001321 113.5202  41.5436  1.00271476 28376
HORIZONS-3E             
1 43633U 18074B   26160.16142285 -.00000014  00000+0  00000+0 0  9997
2 43633   0.0093 158.1609 0000957 124.5481 201.9406  1.00270197 28266
AEHF-4 (USA 288)        
1 43651U 18079A   26160.47102550 -.00000259  00000+0  00000+0 0  9998
2 43651   1.4299   3.2662 0060541 356.7870 359.7752  1.00275691 28219
BEIDOU-3 G1             
1 43683U 18085A   26160.63105803 -.00000091  00000+0  00000+0 0  9996
2 43683   2.8480  97.5932 0008446 347.6362 199.9363  1.00271457 27989
GSAT-29                 
1 43698U 18089A   26160.49536567  .00000102  00000+0  00000+0 0  9997
2 43698   0.0480 112.1609 0003517 322.0943  56.9768  1.00271808 27718
ES'HAIL 2               
1 43700U 18090A   26160.20434110  .00000161  00000+0  00000+0 0  9998
2 43700   0.0163 288.9745 0001916 188.7115 239.2727  1.00273583 27591
GEO-KOMPSAT-2A          
1 43823U 18100A   26160.50981453 -.00000327  00000+0  00000+0 0  9991
2 43823   0.0517 131.1417 0002247 313.3318 125.2042  1.00270115 27552
GSAT-11                 
1 43824U 18100B   26160.49909235 -.00000060  00000+0  00000+0 0  9992
2 43824   0.0475 255.9882 0007823 190.1548  65.4119  1.00271337 27409
GSAT-7A                 
1 43864U 18105A   26160.49692568  .00000044  00000+0  00000+0 0  9990
2 43864   0.0142 275.2492 0002178 144.4362  79.8717  1.00269468 27371
COSMOS 2533             
1 43867U 18107A   26160.49831235 -.00000021  00000+0  00000+0 0  9997
2 43867   0.0434 101.3867 0000299  24.8871  20.9850  1.00270322 27377
TJS-3                   
1 43874U 18110A   26160.62855175 -.00000199  00000+0  00000+0 0  9999
2 43874   2.5243  80.5821 0002009  77.4522 114.4992  1.00272661 27347
ZHONGXING-2D            
1 43920U 19001A   26160.22498627 -.00000320  00000+0  00000+0 0  9998
2 43920   0.0490  89.3904 0000655 283.2683  95.9372  1.00268642 54007
HELLAS-SAT 4 & SGS-1    
1 44034U 19007A   26160.49215899  .00000170  00000+0  00000+0 0  9990
2 44034   0.0659 133.0572 0005087   8.6055 332.4040  1.00272091 27290
GSAT-31                 
1 44035U 19007B   26160.49389234  .00000142  00000+0  00000+0 0  9995
2 44035   0.0845 261.5349 0001889 107.8441 114.1034  1.00272792 26895
NUSANTARA SATU          
1 44048U 19009A   26160.22819295 -.00000218  00000+0  00000+0 0  9992
2 44048   0.0401 145.4911 0004291 326.7553  13.5159  1.00269842 26698
ZHONGXING-6C            
1 44067U 19012A   26159.72600439 -.00000319  00000+0  00000+0 0  9990
2 44067   0.1423  80.4292 0013355 330.3838 238.0639  1.00268549 26658
WGS 10 (USA 291)        
1 44071U 19014A   26160.68294575  .00000000  00000+0  00000+0 0  9990
2 44071   0.0197 354.2229 0000362 202.3015   7.6951  1.00258843 26542
TIANLIAN 2-01           
1 44076U 19017A   26160.49969903 -.00000090  00000+0  00000+0 0  9991
2 44076   0.5190  83.1230 0000784  11.1882  60.4800  1.00271173 26575
ARABSAT-6A              
1 44186U 19021A   26160.20529443  .00000171  00000+0  00000+0 0  9997
2 44186   0.0494   0.6850 0001280 101.2480 260.1178  1.00284123 26079
BEIDOU-3 IGSO-1         
1 44204U 19023A   26157.95428288 -.00000215  00000+0  00000+0 0  9993
2 44204  58.6799  37.7569 0025434 225.6649  92.8731  1.00294886  7105
BEIDOU-2 G8             
1 44231U 19027A   26160.65563867 -.00000230  00000+0  00000+0 0  9998
2 44231   1.6380  74.4939 0010446 284.0565 280.0374  1.00273915 26005
YAMAL 601               
1 44307U 19031A   26160.56545064  .00000137  00000+0  00000+0 0  9991
2 44307   0.0169  54.7316 0002353  24.3458  71.4271  1.00271710 25852
AT&T T-16               
1 44333U 19034A   26160.46149944 -.00000098  00000+0  00000+0 0  9996
2 44333   0.0237  67.0112 0000632 188.4482  67.6581  1.00268708 25556
EUTELSAT 7C             
1 44334U 19034B   26160.34324075  .00000065  00000+0  00000+0 0  9997
2 44334   0.0737 174.5022 0003108 249.3929 324.3949  1.00270882  6758
BEIDOU-3 IGSO-2         
1 44337U 19035A   26160.01737213 -.00000043  00000+0  00000+0 0  9994
2 44337  55.2449 158.9337 0039959 216.4337   8.1508  1.00269508 25582
COSMOS 2539             
1 44457U 19048A   26159.55986544  .00000097  00000+0  00000+0 0  9999
2 44457   0.0380 102.6356 0000301  51.9261 315.9435  1.00270251 25148
EDRS-C                  
1 44475U 19049A   26160.51267454 -.00000245  00000+0  00000+0 0  9996
2 44475   0.0393 136.1106 0001014 313.5066 135.3467  1.00271009 25139
INTELSAT 39 (IS-39)     
1 44476U 19049B   26160.00679632  .00000051  00000+0  00000+0 0  9990
2 44476   0.0162 310.4453 0001155  11.0959   0.2561  1.00266551 25044
AMOS-17                 
1 44479U 19050A   26160.48783891  .00000126  00000+0  00000+0 0  9993
2 44479   0.0155 331.9947 0001594 131.1276 347.3556  1.00270580 25112
AEHF-5 (USA 292)        
1 44481U 19051A   26160.50281904 -.00000241  00000+0  00000+0 0  9997
2 44481   1.4607 335.5601 0067033   0.8224 195.5197  1.00267316 25188
EUTELSAT 5 WEST B       
1 44624U 19067A   26160.34090074 -.00000025  00000+0  00000+0 0  9991
2 44624   0.0630 348.2799 0003114  90.1301 297.0445  1.00271968 24355
TJS-4                   
1 44637U 19070A   26160.64359031 -.00000152  00000+0  00000+0 0  9994
2 44637   0.0182 307.7655 0004788  91.8358 173.6254  1.00269848 24463
